#epoch_mjd,a,e,i,om,w,ma,full_name
55200,39.30019877607869,.2765475398385097,9.302580321990199,339.0325252002966,164.3162199976293,26.08531037702031,"(1999CM158)"
55200,43.1449652,0.0759353,2.79128,53.89799,250.28250,212.20675,"(1999DA)"
51220,39.4120181,0.2673250,14.33549,330.70704,348.38452,180.68753,"(1999DZ7)"
51220,39.3163031,0.3285090,40.00984,136.98915,338.31339,12.49168,"(1999DA8)"
51240,42.5107320,0.1016226,22.28083,133.76319,6.77087,0.05319,"(1999DB8)"
51220,45.8838472,0.0000000,4.76465,108.68287,31.36334,0.00000,"(1999DC8)"
51220,39.4047434,0.2304741,5.49176,346.54291,59.76465,67.05756,"(1999DD8)"
51220,45.6044321,0.0000000,3.52809,95.74685,44.18275,0.00000,"(1999DE8)"
51220,44.1623120,0.0000000,2.52614,31.43744,108.45635,0.00000,"(1999DF8)"
51220,82.2151900,0.5984718,39.99668,322.95888,72.74711,33.55125,"(1999DG8)"
55200,43.9400593,0.0719143,4.53148,105.16286,103.76075,311.96583,"(1999DH8)"
51240,42.5172093,0.0000000,5.76412,114.48091,25.93968,0.00000,"(1999DL8)"
51220,42.8823144,0.0000000,3.90092,99.25705,40.87909,0.00000,"(1999DM8)"
51220,44.3384019,0.0000000,2.90618,78.42770,61.67831,0.00000,"(1999DN8)"
51220,41.7914891,0.0000000,3.42945,10.09146,129.95210,0.00000,"(1999DO8)"
51220,115.7544506,0.6998768,38.40677,136.92199,283.45070,13.88981,"(1999DP8)"
51220,45.3181592,0.0000000,14.18641,130.31655,10.23226,0.00000,"(1999DQ8)"
51220,45.5204131,0.1125426,8.18344,339.02623,340.83465,180.17615,"(1999DR8)"
55200,44.5093661,0.0822615,5.18866,24.37882,95.55085,89.21877,"(1999GS46)"
55200,44.0774266,0.0211068,2.59928,105.73213,173.04454,301.20327,"(1999HS11)"
55200,42.8949373,0.0245472,3.16011,160.99242,269.95086,145.61519,"(1999HV11)"
51280,42.1581348,0.0597979,6.18580,35.85796,151.93644,359.98226,"(1999HY11)"
51280,42.3819767,0.0786938,10.05700,170.05764,20.01114,359.98208,"(1999HZ11)"
51300,43.1397616,0.0595442,3.56465,107.10315,96.02092,0.05230,"(1999HA12)"
55200,43.6100023,0.1570060,1.02095,30.63087,268.56936,296.34071,"(1999HG12)"
55200,43.5401544,0.0230787,1.29863,255.86979,75.36171,249.68921,"(1999HH12)"
55200,43.0684277,0.0474544,4.53990,122.62926,223.48900,251.66959,"(1999HJ12)"
51300,44.5391466,0.0000000,6.87308,0.83392,181.62704,0.00000,"(1999JA132)"
51300,39.5366849,0.2749017,13.06674,211.92616,95.48268,296.42212,"(1999JB132)"
51300,39.5306546,0.2435778,5.72496,35.83984,280.23240,284.68078,"(1999JC132)"
55200,43.2933935,0.0633969,10.49865,30.96932,102.75388,85.16742,"(1999JD132)"
51300,39.4404389,0.1947002,25.02900,213.18560,269.51834,67.85465,"(1999JE132)"
51300,44.4635296,0.0000000,1.89378,29.97183,182.79711,0.00000,"(1999JF132)"
51300,42.0078160,0.0000000,0.72523,206.99033,5.30053,0.00000,"(1999JH132)"
51300,45.7937204,0.1018057,3.36559,210.48808,182.10402,179.91606,"(1999JJ132)"
51300,39.3398861,0.1655646,16.01848,32.63021,84.07787,77.14115,"(1999JK132)"
51300,46.4166729,0.0000000,8.69853,213.94207,358.33793,0.00000,"(1999KT16)"
51300,45.5429822,0.0000000,3.97331,210.48252,2.10701,0.00000,"(1999KK17)"
51340,46.2377937,0.0294238,2.87971,307.23514,180.30582,180.08475,"(1999KL17)"
55200,43.8089470,0.2026530,0.60223,283.75161,212.88518,180.57443,"(1999KR18)"
51320,39.4991093,0.1926940,14.87505,119.77456,218.67226,291.58798,"(1999LB37)"
55200,44.4610847,0.1282407,2.54245,137.75387,273.67849,292.48402,"(1999OZ3)"
55200,44.6519334,0.0631139,3.11889,136.93935,62.46058,123.18398,"(1999OA4)"
55200,45.8060708,0.1723080,1.16925,55.63103,205.04228,51.98807,"(1999OC4)"
55200,41.6505957,0.0910673,14.36585,301.46828,144.32761,239.23769,"(1999OD4)"
55200,45.6518302,0.0523371,2.14903,130.86541,212.65047,347.46138,"(1999OE4)"
55200,47.2827817,0.1315802,1.41957,111.29154,104.80007,94.31368,"(1999OG4)"
55200,40.6928621,0.0435453,28.12737,124.15341,166.03594,26.50487,"(1999OH4)"
55200,38.2432719,0.0263218,3.99351,127.45982,280.00204,286.29219,"(1999OJ4)"
55200,43.4553244,0.1547684,29.92377,122.35393,67.25618,109.74138,"(1999OK4)"
55200,46.3623037,0.1194763,2.08338,113.73641,136.78899,65.38279,"(1999OM4)"
55200,42.9334284,0.0473415,3.18270,133.03519,188.83355,7.27107,"(1999ON4)"
51440,42.9643630,0.0000000,3.17443,139.49575,178.81820,0.00000,"(1999RS214)"
55200,42.8126255,0.0523790,2.57252,138.03701,206.84002,349.26079,"(1999RT214)"
55200,56.1452983,0.3430603,4.25116,137.82668,108.86112,48.03916,"(1999RU214)"
51440,45.0319991,0.0798094,1.14909,144.62927,357.83118,180.12926,"(1999RV214)"
55200,43.1052042,0.0261091,1.36627,0.31229,280.02064,91.15354,"(1999RW214)"
55200,46.3591231,0.1728986,4.80677,3.74822,267.55423,86.23148,"(1999RX214)"
55200,45.3613276,0.1823853,13.67541,327.22043,69.94628,353.10387,"(1999RY214)"
55200,85.8168104,0.5721579,20.47655,214.51004,114.66102,13.90665,"(1999RZ214)"
55200,47.9404370,0.3453519,7.84527,4.95526,347.92907,17.45255,"(1999RB215)"
55200,44.2408363,0.0533950,1.40433,189.02515,249.97632,306.46051,"(1999RC215)"
51460,43.9641315,0.0000000,3.67497,327.57913,0.19570,0.00000,"(1999RF215)"
55200,46.7323732,0.0741802,0.24151,292.08588,109.56339,314.73813,"(1999RG215)"
55200,59.91342704925306,.4213665510351424,19.68937599980149,314.8319271979133,43.61603458702302,2.319753886373647,"(1999RJ215)"
55200,39.5509416,0.1368342,11.44786,137.38882,96.85739,136.98275,"(1999RK215)"
55200,43.3623580,0.0713504,12.39688,140.54306,106.12292,127.98062,"(1999RN215)"
55200,44.3157652,0.1052476,1.18197,185.88968,148.89419,42.66929,"(1999RR215)"
51460,43.0894190,0.0000000,21.90683,192.89808,179.84892,0.00000,"(1999RT215)"
55200,43.2412425,0.0742329,7.72579,14.26146,330.97842,37.68425,"(1999RU215)"
55200,44.8160542,0.1868579,21.96945,351.76047,23.82814,13.23528,"(1999RV215)"
55200,36.4771364,0.1580103,10.54926,252.92705,186.84832,327.58718,"(1999RW215)"
55200,47.2713072,0.1458134,0.89084,99.23175,188.16634,38.01514,"(1999RX215)"
51460,44.4027676,0.0806812,0.58829,190.53760,344.28641,180.14907,"(1999RC216)"
51420,43.1963290,0.0517329,17.92143,190.64247,144.90015,359.95474,"(1999RK257)"
51420,39.2339300,0.1849673,11.11155,262.70271,73.90265,359.93137,"(1999SA28)"
55200,39.4421326,0.2466346,17.13345,54.69760,346.68000,22.51535,"(1999TR11)"
55200,42.96556393226744,.08338965725335262,7.171659349651825,255.440054388807,79.70840605583446,105.559615158091,"(1999XY143)"
55200,52.38422056479302,.95615458414007,68.50657926206995,314.1786948413397,171.7935820005449,9.563479473890727,"(2000AB229)"
51540,43.0839324,0.0998214,20.38839,159.03395,279.04074,0.00000,"(2000AB255)"
51540,46.8066373,0.1597219,34.75408,111.04819,141.39677,181.12155,"(2000AC255)"
51540,42.1739804,0.0423679,33.03688,113.61166,320.39700,0.00000,"(2000AD255)"
51540,44.0512887,0.0624148,35.93830,43.77462,56.57171,0.00000,"(2000AE255)"
55200,48.437516016648,.2494060500006541,30.87040484819094,23.51826780791603,200.1733557439393,269.7232832582007,"(2000AF255)"
55200,44.2407240841527,.07523549879337423,1.245122950208583,140.909755900105,305.6575375587731,68.61607194935118,"(2000CL104)"
51580,42.5849615,0.0000000,0.93119,149.01724,1.72415,0.00000,"(2000CM104)"
51580,42.9273894,0.0000000,31.51916,150.54231,0.25713,0.00000,"(2000CN104)"
55200,44.1069082,0.1028947,9.50669,130.67859,149.65619,250.43330,"(2000CP104)"
55200,36.5511184,0.2351203,13.54543,341.82747,69.66033,86.32454,"(2000CQ104)"
55200,43.7215729,0.0538252,0.54609,76.55158,25.62702,17.54989,"(2000CE105)"
55200,43.69092815506482,.03380853729835486,.5270435602587457,56.53344154622569,50.67855542024408,25.12134614458448,"(2000CF105)"
55200,46.1736415,0.0409902,28.05802,314.09367,79.20838,107.12772,"(2000CG105)"
55200,44.02024346705932,.1097043496495547,11.62045251626975,154.2421391854554,226.3009317615074,145.1189634098837,"(2000CJ105)"
55200,39.3009072,0.2360478,8.16269,326.50505,352.56145,182.80882,"(2000CK105)"
55200,42.85865810101089,.05032398588860428,4.182031837412767,113.710379520543,201.0394199302836,192.4564684997218,"(2000CL105)"
55200,44.35479168638115,.09904539685312459,3.420875467767351,28.79728142197594,6.900055180392736,114.7215663033463,"(2000CN105)"
55200,46.90677224848324,.1498328006695258,19.31968531594089,307.2624454769528,54.72131098963728,112.9337333905326,"(2000CO105)"
51580,83.1642149,0.5854253,19.42549,133.13984,1.85182,359.68815,"(2000CP105)"
55200,56.7404822,0.3920551,19.72620,130.69842,103.78843,315.18825,"(2000CQ105)"
51580,44.7134688,0.1433804,5.03854,19.00562,141.29177,359.99945,"(2000CS105)"
51580,45.5325121,0.0913109,10.02161,132.82399,175.77021,180.06690,"(2000CY105)"
55200,43.7504596,0.0435261,1.55129,82.42503,312.40615,110.60208,"(2000CN114)"
51600,46.1428808,0.0612409,32.51467,333.22545,351.99850,180.05121,"(2000CO114)"
51600,39.4764691,0.1656853,31.00068,127.03928,260.10657,86.96432,"(2000CP114)"
55200,45.9090790,0.1129796,2.69442,38.32919,29.99468,85.84459,"(2000CQ114)"
55200,43.8306946,0.0292880,0.75163,212.89538,15.35022,330.82774,"(2000FA8)"
55200,39.1903220,0.2965116,4.59662,1.78414,66.57327,97.62829,"(2000FB8)"
55200,43.8486266,0.0670687,0.71833,332.90743,25.61231,199.90670,"(2000FC8)"
55200,45.0436886,0.1006210,4.47116,178.38004,112.65954,277.35318,"(2000FF8)"
55200,44.0789879,0.0601736,1.13809,159.67837,121.74393,283.24710,"(2000FG8)"
55200,43.4064532,0.0356551,2.07498,8.85871,21.93197,165.89084,"(2000FH8)"
55200,44.4469732,0.0829842,2.51934,39.42403,88.01539,82.10078,"(2000FR53)"
55200,43.0323829,0.0325624,2.08835,26.06572,132.19603,58.17965,"(2000FS53)"
55200,45.1881927,0.1583796,12.00123,35.33950,245.53816,320.75535,"(2000FT53)"
51640,42.3922667,0.0753577,5.31622,32.02546,160.77402,12.13681,"(2000FU53)"
55200,39.1832520,0.1625692,17.35168,207.57637,351.16230,19.82705,"(2000FV53)"
51620,47.1996910,0.1466916,6.66172,50.28264,336.97625,179.14424,"(2000FW53)"
55200,43.4407388,0.1285252,4.67114,175.14876,36.08071,346.66135,"(2000FX53)"
51620,39.2994190,0.2591689,18.37660,28.71273,269.47790,297.87167,"(2000FY53)"
55200,43.9835536,0.0648048,3.67387,99.96159,65.43187,46.91007,"(2000GV146)"
51620,41.2054594,0.0000000,28.97548,8.91312,179.95707,0.00000,"(2000GW146)"
55200,44.0396013,0.0167230,0.67835,344.94201,49.34945,166.23154,"(2000GX146)"
